ADRAS-J                 
1 58992U 24034A   24111.91311988  .00005772  00000+0  54663-3 0  9992
2 58992  98.2059  82.3830 0042680 236.1698 181.2172 14.93348667  9313
